WNISAT 1R               
1 42835U 17042L   26068.86192839  .00004802  00000+0  37840-3 0  9992
2 42835  97.4515 228.7079 0013301 131.3338 228.9034 15.01153186471607
STARLINK-36123          
1 67007U 25293E   26068.66670139 -.00043829  00000+0 -36852-2 0  9994
2 67007  69.9998  94.4135 0003577 276.0950 201.5645 14.98362037  5785
