[{"OBJECT_NAME":"WNISAT 1R","OBJECT_ID":"2017-042L","EPOCH":"2026-03-09T20:41:10.613760","MEAN_MOTION":15.01153186,"ECCENTRICITY":0.00133015,"INCLINATION":97.4515,"RA_OF_ASC_NODE":228.7079,"ARG_OF_PERICENTER":131.3338,"MEAN_ANOMALY":228.9034,"EPHEMERIS_TYPE":0,"CLASSIFICATION_TYPE":"U","NORAD_CAT_ID":42835,"ELEMENT_SET_NO":999,"REV_AT_EPOCH":47160,"BSTAR":0.00037839839,"MEAN_MOTION_DOT":4.802e-5,"MEAN_MOTION_DDOT":0},{"OBJECT_NAME":"STARLINK-36123","OBJECT_ID":"2025-293E","EPOCH":"2026-03-09T16:00:03.000096","MEAN_MOTION":14.98362037,"ECCENTRICITY":0.0003577,"INCLINATION":69.9998,"RA_OF_ASC_NODE":94.4135,"ARG_OF_PERICENTER":276.095,"MEAN_ANOMALY":201.5645,"EPHEMERIS_TYPE":0,"CLASSIFICATION_TYPE":"U","NORAD_CAT_ID":67007,"ELEMENT_SET_NO":999,"REV_AT_EPOCH":578,"BSTAR":-0.0036852177,"MEAN_MOTION_DOT":-0.00043829,"MEAN_MOTION_DDOT":0}]
